COSMOS 1743             
1 16719U 86034A   25319.36738536  .00030314  00000+0  53178-3 0  9993
2 16719  82.5377 192.9789 0006807   8.4348 351.7016 15.50372187162495
SL-14 R/B               
1 16792U 86046B   25319.63550480  .00000921  00000+0  10371-3 0  9996
2 16792  82.4829 187.9095 0021750 243.5891 116.3093 14.85446770109476
SL-14 R/B               
1 16882U 86055B   25319.30900087  .00001168  00000+0  13226-3 0  9998
2 16882  82.5218 234.1438 0018906 355.6310 125.3178 14.85489436102388
AJISAI (EGS)            
1 16908U 86061A   25319.86463073 -.00000098  00000+0 -38270-5 0  9995
2 16908  50.0090  83.3544 0011196 358.2487 180.6794 12.44514160453827
COSMOS 1812             
1 17295U 87003A   25319.49442190  .00079257  00000+0  65588-3 0  9999
2 17295  82.4879 321.3816 0005553 132.1873 227.9861 15.69967846126376
SL-14 R/B               
1 17567U 87024B   25319.64295558  .00000962  00000+0  10722-3 0  9992
2 17567  82.5298 199.9061 0016779 279.7341  80.1980 14.85986934 71191
COSMOS 1833             
1 17589U 87027A   25319.67552303 -.00000169  00000+0 -64673-4 0  9992
2 17589  70.9143 205.6705 0021370   9.8553 350.2982 14.13019294994201
SL-16 R/B               
1 17590U 87027B   25319.83888532 -.00000118  00000+0 -34823-4 0  9996
2 17590  71.0003 156.4031 0007253 287.7634  72.2698 14.17147640999252
SL-14 R/B               
1 17912U 87038B   25319.64672993  .00001087  00000+0  12364-3 0  9996
2 17912  82.5038  44.2142 0019388 177.2561 182.8765 14.85223930 62308
COSMOS 1844             
1 17973U 87041A   25319.83135601  .00000346  00000+0  20472-3 0  9994
2 17973  70.8991 274.3234 0031478 197.8483 162.1536 14.14524467987489
SL-14 R/B               
1 18153U 87055B   25319.84547375  .00001080  00000+0  12194-3 0  9994
2 18153  82.4978  96.3324 0021484  33.4609 326.7960 14.85480224 53031
COSMOS 1867             
1 18187U 87060A   25319.56606661  .00000083  00000+0  68749-4 0  9990
2 18187  65.0103 266.2978 0013689 268.4156  91.5360 14.31479957  3604
