CCSDS_OMM_VERS = 2.0
CREATION_DATE  = 
ORIGINATOR     = 

OBJECT_NAME    = COSMOS 1743
OBJECT_ID      = 1986-034A
CENTER_NAME    = EARTH
REF_FRAME      = TEME
TIME_SYSTEM    = UTC
MEAN_ELEMENT_THEORY = SGP/SGP4

EPOCH          = 2025-11-15T08:49:02.095104
MEAN_MOTION    = 15.50372187
ECCENTRICITY   = .0006807
INCLINATION    = 82.5377
RA_OF_ASC_NODE = 192.9789
ARG_OF_PERICENTER = 8.4348
MEAN_ANOMALY   = 351.7016

EPHEMERIS_TYPE = 0
CLASSIFICATION_TYPE = U
NORAD_CAT_ID   = 16719
ELEMENT_SET_NO = 999
REV_AT_EPOCH   = 16249
BSTAR          = .53178E-3
MEAN_MOTION_DOT = .30314E-3
MEAN_MOTION_DDOT = 0

CCSDS_OMM_VERS = 2.0
CREATION_DATE  = 
ORIGINATOR     = 

OBJECT_NAME    = SL-14 R/B
OBJECT_ID      = 1986-046B
CENTER_NAME    = EARTH
REF_FRAME      = TEME
TIME_SYSTEM    = UTC
MEAN_ELEMENT_THEORY = SGP/SGP4

EPOCH          = 2025-11-15T15:15:07.614720
MEAN_MOTION    = 14.85446770
ECCENTRICITY   = .002175
INCLINATION    = 82.4829
RA_OF_ASC_NODE = 187.9095
ARG_OF_PERICENTER = 243.5891
MEAN_ANOMALY   = 116.3093

EPHEMERIS_TYPE = 0
CLASSIFICATION_TYPE = U
NORAD_CAT_ID   = 16792
ELEMENT_SET_NO = 999
REV_AT_EPOCH   = 10947
BSTAR          = .10371E-3
MEAN_MOTION_DOT = .921E-5
MEAN_MOTION_DDOT = 0

CCSDS_OMM_VERS = 2.0
CREATION_DATE  = 
ORIGINATOR     = 

OBJECT_NAME    = SL-14 R/B
OBJECT_ID      = 1986-055B
CENTER_NAME    = EARTH
REF_FRAME      = TEME
TIME_SYSTEM    = UTC
MEAN_ELEMENT_THEORY = SGP/SGP4

EPOCH          = 2025-11-15T07:24:57.675168
MEAN_MOTION    = 14.85489436
ECCENTRICITY   = .0018906
INCLINATION    = 82.5218
RA_OF_ASC_NODE = 234.1438
ARG_OF_PERICENTER = 355.6310
MEAN_ANOMALY   = 125.3178

EPHEMERIS_TYPE = 0
CLASSIFICATION_TYPE = U
NORAD_CAT_ID   = 16882
ELEMENT_SET_NO = 999
REV_AT_EPOCH   = 10238
BSTAR          = .13226E-3
MEAN_MOTION_DOT = .1168E-4
MEAN_MOTION_DDOT = 0

CCSDS_OMM_VERS = 2.0
CREATION_DATE  = 
ORIGINATOR     = 

OBJECT_NAME    = AJISAI (EGS)
OBJECT_ID      = 1986-061A
CENTER_NAME    = EARTH
REF_FRAME      = TEME
TIME_SYSTEM    = UTC
MEAN_ELEMENT_THEORY = SGP/SGP4

EPOCH          = 2025-11-15T20:45:04.095072
MEAN_MOTION    = 12.44514160
ECCENTRICITY   = .0011196
INCLINATION    = 50.0090
RA_OF_ASC_NODE = 83.3544
ARG_OF_PERICENTER = 358.2487
MEAN_ANOMALY   = 180.6794

EPHEMERIS_TYPE = 0
CLASSIFICATION_TYPE = U
NORAD_CAT_ID   = 16908
ELEMENT_SET_NO = 999
REV_AT_EPOCH   = 45382
BSTAR          = -.3827E-5
MEAN_MOTION_DOT = -.98E-6
MEAN_MOTION_DDOT = 0

CCSDS_OMM_VERS = 2.0
CREATION_DATE  = 
ORIGINATOR     = 

OBJECT_NAME    = COSMOS 1812
OBJECT_ID      = 1987-003A
CENTER_NAME    = EARTH
REF_FRAME      = TEME
TIME_SYSTEM    = UTC
MEAN_ELEMENT_THEORY = SGP/SGP4

EPOCH          = 2025-11-15T11:51:58.052160
MEAN_MOTION    = 15.69967846
ECCENTRICITY   = .0005553
INCLINATION    = 82.4879
RA_OF_ASC_NODE = 321.3816
ARG_OF_PERICENTER = 132.1873
MEAN_ANOMALY   = 227.9861

EPHEMERIS_TYPE = 0
CLASSIFICATION_TYPE = U
NORAD_CAT_ID   = 17295
ELEMENT_SET_NO = 999
REV_AT_EPOCH   = 12637
BSTAR          = .65588E-3
MEAN_MOTION_DOT = .79257E-3
MEAN_MOTION_DDOT = 0

CCSDS_OMM_VERS = 2.0
CREATION_DATE  = 
ORIGINATOR     = 

OBJECT_NAME    = SL-14 R/B
OBJECT_ID      = 1987-024B
CENTER_NAME    = EARTH
REF_FRAME      = TEME
TIME_SYSTEM    = UTC
MEAN_ELEMENT_THEORY = SGP/SGP4

EPOCH          = 2025-11-15T15:25:51.362112
MEAN_MOTION    = 14.85986934
ECCENTRICITY   = .0016779
INCLINATION    = 82.5298
RA_OF_ASC_NODE = 199.9061
ARG_OF_PERICENTER = 279.7341
MEAN_ANOMALY   = 80.1980

EPHEMERIS_TYPE = 0
CLASSIFICATION_TYPE = U
NORAD_CAT_ID   = 17567
ELEMENT_SET_NO = 999
REV_AT_EPOCH   = 7119
BSTAR          = .10722E-3
MEAN_MOTION_DOT = .962E-5
MEAN_MOTION_DDOT = 0

CCSDS_OMM_VERS = 2.0
CREATION_DATE  = 
ORIGINATOR     = 

OBJECT_NAME    = COSMOS 1833
OBJECT_ID      = 1987-027A
CENTER_NAME    = EARTH
REF_FRAME      = TEME
TIME_SYSTEM    = UTC
MEAN_ELEMENT_THEORY = SGP/SGP4

EPOCH          = 2025-11-15T16:12:45.189792
MEAN_MOTION    = 14.13019294
ECCENTRICITY   = .002137
INCLINATION    = 70.9143
RA_OF_ASC_NODE = 205.6705
ARG_OF_PERICENTER = 9.8553
MEAN_ANOMALY   = 350.2982

EPHEMERIS_TYPE = 0
CLASSIFICATION_TYPE = U
NORAD_CAT_ID   = 17589
ELEMENT_SET_NO = 999
REV_AT_EPOCH   = 99420
BSTAR          = -.64673E-4
MEAN_MOTION_DOT = -.169E-5
MEAN_MOTION_DDOT = 0

CCSDS_OMM_VERS = 2.0
CREATION_DATE  = 
ORIGINATOR     = 

OBJECT_NAME    = SL-16 R/B
OBJECT_ID      = 1987-027B
CENTER_NAME    = EARTH
REF_FRAME      = TEME
TIME_SYSTEM    = UTC
MEAN_ELEMENT_THEORY = SGP/SGP4

EPOCH          = 2025-11-15T20:07:59.691648
MEAN_MOTION    = 14.17147640
ECCENTRICITY   = .0007253
INCLINATION    = 71.0003
RA_OF_ASC_NODE = 156.4031
ARG_OF_PERICENTER = 287.7634
MEAN_ANOMALY   = 72.2698

EPHEMERIS_TYPE = 0
CLASSIFICATION_TYPE = U
NORAD_CAT_ID   = 17590
ELEMENT_SET_NO = 999
REV_AT_EPOCH   = 99925
BSTAR          = -.34823E-4
MEAN_MOTION_DOT = -.118E-5
MEAN_MOTION_DDOT = 0

CCSDS_OMM_VERS = 2.0
CREATION_DATE  = 
ORIGINATOR     = 

OBJECT_NAME    = SL-14 R/B
OBJECT_ID      = 1987-038B
CENTER_NAME    = EARTH
REF_FRAME      = TEME
TIME_SYSTEM    = UTC
MEAN_ELEMENT_THEORY = SGP/SGP4

EPOCH          = 2025-11-15T15:31:17.465952
MEAN_MOTION    = 14.85223930
ECCENTRICITY   = .0019388
INCLINATION    = 82.5038
RA_OF_ASC_NODE = 44.2142
ARG_OF_PERICENTER = 177.2561
MEAN_ANOMALY   = 182.8765

EPHEMERIS_TYPE = 0
CLASSIFICATION_TYPE = U
NORAD_CAT_ID   = 17912
ELEMENT_SET_NO = 999
REV_AT_EPOCH   = 6230
BSTAR          = .12364E-3
MEAN_MOTION_DOT = .1087E-4
MEAN_MOTION_DDOT = 0

CCSDS_OMM_VERS = 2.0
CREATION_DATE  = 
ORIGINATOR     = 

OBJECT_NAME    = COSMOS 1844
OBJECT_ID      = 1987-041A
CENTER_NAME    = EARTH
REF_FRAME      = TEME
TIME_SYSTEM    = UTC
MEAN_ELEMENT_THEORY = SGP/SGP4

EPOCH          = 2025-11-15T19:57:09.159264
MEAN_MOTION    = 14.14524467
ECCENTRICITY   = .0031478
INCLINATION    = 70.8991
RA_OF_ASC_NODE = 274.3234
ARG_OF_PERICENTER = 197.8483
MEAN_ANOMALY   = 162.1536

EPHEMERIS_TYPE = 0
CLASSIFICATION_TYPE = U
NORAD_CAT_ID   = 17973
ELEMENT_SET_NO = 999
REV_AT_EPOCH   = 98748
BSTAR          = .20472E-3
MEAN_MOTION_DOT = .346E-5
MEAN_MOTION_DDOT = 0

CCSDS_OMM_VERS = 2.0
CREATION_DATE  = 
ORIGINATOR     = 

OBJECT_NAME    = SL-14 R/B
OBJECT_ID      = 1987-055B
CENTER_NAME    = EARTH
REF_FRAME      = TEME
TIME_SYSTEM    = UTC
MEAN_ELEMENT_THEORY = SGP/SGP4

EPOCH          = 2025-11-15T20:17:28.932000
MEAN_MOTION    = 14.85480224
ECCENTRICITY   = .0021484
INCLINATION    = 82.4978
RA_OF_ASC_NODE = 96.3324
ARG_OF_PERICENTER = 33.4609
MEAN_ANOMALY   = 326.7960

EPHEMERIS_TYPE = 0
CLASSIFICATION_TYPE = U
NORAD_CAT_ID   = 18153
ELEMENT_SET_NO = 999
REV_AT_EPOCH   = 5303
BSTAR          = .12194E-3
MEAN_MOTION_DOT = .108E-4
MEAN_MOTION_DDOT = 0

CCSDS_OMM_VERS = 2.0
CREATION_DATE  = 
ORIGINATOR     = 

OBJECT_NAME    = COSMOS 1867
OBJECT_ID      = 1987-060A
CENTER_NAME    = EARTH
REF_FRAME      = TEME
TIME_SYSTEM    = UTC
MEAN_ELEMENT_THEORY = SGP/SGP4

EPOCH          = 2025-11-15T13:35:08.155104
MEAN_MOTION    = 14.31479957
ECCENTRICITY   = .0013689
INCLINATION    = 65.0103
RA_OF_ASC_NODE = 266.2978
ARG_OF_PERICENTER = 268.4156
MEAN_ANOMALY   = 91.5360

EPHEMERIS_TYPE = 0
CLASSIFICATION_TYPE = U
NORAD_CAT_ID   = 18187
ELEMENT_SET_NO = 999
REV_AT_EPOCH   = 360
BSTAR          = .68749E-4
MEAN_MOTION_DOT = .83E-6
MEAN_MOTION_DDOT = 0

